[
    {
        "Altitude(m)": 605459.0409160531,
        "Argument of Periapsis(deg)": 0.0,
        "Eccentricity": 0.0,
        "Inclination(deg)": 60.0,
        "Latitude(deg)": 27.98825334844646,
        "Longitude(deg)": 17.798527625722528,
        "Mean Anomaly(deg)": 32.7273,
        "RAAN(deg)": 100.0,
        "Satellite Name": "Test1 442",
        "Satellite Number": 442,
        "Semi-Major Axis(m)": 6980739.136638005,
        "Time(s)": 0
    },
    {
        "Altitude(m)": 605535.8322906928,
        "Argument of Periapsis(deg)": 0.00010418945913296404,
        "Eccentricity": 0.0,
        "Inclination(deg)": 60.0,
        "Latitude(deg)": 28.501383529440798,
        "Longitude(deg)": 18.15547159519464,
        "Mean Anomaly(deg)": 33.34740614546184,
        "RAAN(deg)": 99.99957995086025,
        "Satellite Name": "Test1 442",
        "Satellite Number": 442,
        "Semi-Major Axis(m)": 6980739.136638005,
        "Time(s)": 10
    }
]